[{"OBJECT_NAME":"UNKNOWN","OBJECT_ID":"","EPOCH":"2026-03-27T09:02:30.057792","MEAN_MOTION":12.35705999,"ECCENTRICITY":0.0895437,"INCLINATION":28.6214,"RA_OF_ASC_NODE":180.3235,"ARG_OF_PERICENTER":32.0163,"MEAN_ANOMALY":333.1722,"EPHEMERIS_TYPE":0,"CLASSIFICATION_TYPE":"U","NORAD_CAT_ID":87991,"ELEMENT_SET_NO":999,"REV_AT_EPOCH":53594,"BSTAR":-0.0044692,"MEAN_MOTION_DOT":-2.232e-5,"MEAN_MOTION_DDOT":0},{"OBJECT_NAME":"UNKNOWN","OBJECT_ID":"2025-241B","EPOCH":"2026-03-18T20:58:45.947424","MEAN_MOTION":15.22548355,"ECCENTRICITY":0.0004488,"INCLINATION":51.6342,"RA_OF_ASC_NODE":29.1833,"ARG_OF_PERICENTER":186.7062,"MEAN_ANOMALY":173.3856,"EPHEMERIS_TYPE":0,"CLASSIFICATION_TYPE":"U","NORAD_CAT_ID":88780,"ELEMENT_SET_NO":999,"REV_AT_EPOCH":114,"BSTAR":0.00035116,"MEAN_MOTION_DOT":7.938e-5,"MEAN_MOTION_DDOT":0},{"OBJECT_NAME":"UNKNOWN","OBJECT_ID":"","EPOCH":"2026-03-28T11:30:46.099872","MEAN_MOTION":14.46399045,"ECCENTRICITY":0.0190519,"INCLINATION":97.8439,"RA_OF_ASC_NODE":273.769,"ARG_OF_PERICENTER":66.148,"MEAN_ANOMALY":295.9552,"EPHEMERIS_TYPE":0,"CLASSIFICATION_TYPE":"U","NORAD_CAT_ID":89005,"ELEMENT_SET_NO":999,"REV_AT_EPOCH":54937,"BSTAR":0.00055094,"MEAN_MOTION_DOT":2.436e-5,"MEAN_MOTION_DDOT":0},{"OBJECT_NAME":"UNKNOWN","OBJECT_ID":"","EPOCH":"2026-03-26T12:01:32.257920","MEAN_MOTION":14.95876272,"ECCENTRICITY":0.0021816,"INCLINATION":98.0437,"RA_OF_ASC_NODE":352.4529,"ARG_OF_PERICENTER":346.0837,"MEAN_ANOMALY":13.978,"EPHEMERIS_TYPE":0,"CLASSIFICATION_TYPE":"U","NORAD_CAT_ID":89029,"ELEMENT_SET_NO":999,"REV_AT_EPOCH":66658,"BSTAR":0.00047021,"MEAN_MOTION_DOT":5.221e-5,"MEAN_MOTION_DDOT":0},{"OBJECT_NAME":"UNKNOWN","OBJECT_ID":"","EPOCH":"2026-03-17T01:55:39.408672","MEAN_MOTION":13.04035932,"ECCENTRICITY":0.0146493,"INCLINATION":100.4728,"RA_OF_ASC_NODE":14.8267,"ARG_OF_PERICENTER":257.9915,"MEAN_ANOMALY":100.4739,"EPHEMERIS_TYPE":0,"CLASSIFICATION_TYPE":"U","NORAD_CAT_ID":89101,"ELEMENT_SET_NO":999,"REV_AT_EPOCH":56714,"BSTAR":-0.00097867,"MEAN_MOTION_DOT":-3.73e-6,"MEAN_MOTION_DDOT":0},{"OBJECT_NAME":"UNKNOWN","OBJECT_ID":"","EPOCH":"2026-03-28T13:34:07.983552","MEAN_MOTION":8.88041995,"ECCENTRICITY":0.2924305,"INCLINATION":63.4178,"RA_OF_ASC_NODE":287.317,"ARG_OF_PERICENTER":319.7281,"MEAN_ANOMALY":21.9439,"EPHEMERIS_TYPE":0,"CLASSIFICATION_TYPE":"U","NORAD_CAT_ID":89132,"ELEMENT_SET_NO":999,"REV_AT_EPOCH":33450,"BSTAR":0.0019457,"MEAN_MOTION_DOT":1.441e-5,"MEAN_MOTION_DDOT":0},{"OBJECT_NAME":"UNKNOWN","OBJECT_ID":"","EPOCH":"2026-03-26T06:49:36.616512","MEAN_MOTION":14.64119471,"ECCENTRICITY":0.0093177,"INCLINATION":98.2537,"RA_OF_ASC_NODE":19.1173,"ARG_OF_PERICENTER":90.7777,"MEAN_ANOMALY":270.4102,"EPHEMERIS_TYPE":0,"CLASSIFICATION_TYPE":"U","NORAD_CAT_ID":89146,"ELEMENT_SET_NO":999,"REV_AT_EPOCH":64402,"BSTAR":0.00065658,"MEAN_MOTION_DOT":3.624e-5,"MEAN_MOTION_DDOT":0},{"OBJECT_NAME":"UNKNOWN","OBJECT_ID":"","EPOCH":"2026-03-20T08:17:33.957888","MEAN_MOTION":15.93413522,"ECCENTRICITY":0.0009475,"INCLINATION":97.6294,"RA_OF_ASC_NODE":106.9899,"ARG_OF_PERICENTER":106.8536,"MEAN_ANOMALY":253.3777,"EPHEMERIS_TYPE":0,"CLASSIFICATION_TYPE":"U","NORAD_CAT_ID":89161,"ELEMENT_SET_NO":999,"REV_AT_EPOCH":56376,"BSTAR":0.0031768,"MEAN_MOTION_DOT":0.01120648,"MEAN_MOTION_DDOT":0.00057617},{"OBJECT_NAME":"UNKNOWN","OBJECT_ID":"","EPOCH":"2026-03-27T02:03:30.399264","MEAN_MOTION":14.49498207,"ECCENTRICITY":0.027941,"INCLINATION":82.0615,"RA_OF_ASC_NODE":123.7785,"ARG_OF_PERICENTER":319.45,"MEAN_ANOMALY":38.6169,"EPHEMERIS_TYPE":0,"CLASSIFICATION_TYPE":"U","NORAD_CAT_ID":89172,"ELEMENT_SET_NO":999,"REV_AT_EPOCH":61699,"BSTAR":0.0015282,"MEAN_MOTION_DOT":9.705e-5,"MEAN_MOTION_DDOT":0},{"OBJECT_NAME":"UNKNOWN","OBJECT_ID":"","EPOCH":"2026-03-28T13:26:26.829600","MEAN_MOTION":13.81725948,"ECCENTRICITY":0.0129148,"INCLINATION":99.2169,"RA_OF_ASC_NODE":1.2279,"ARG_OF_PERICENTER":235.0426,"MEAN_ANOMALY":123.8543,"EPHEMERIS_TYPE":0,"CLASSIFICATION_TYPE":"U","NORAD_CAT_ID":89183,"ELEMENT_SET_NO":999,"REV_AT_EPOCH":62158,"BSTAR":0.00044471,"MEAN_MOTION_DOT":4.62e-6,"MEAN_MOTION_DDOT":0},{"OBJECT_NAME":"UNKNOWN","OBJECT_ID":"","EPOCH":"2026-03-28T09:23:39.291936","MEAN_MOTION":14.87322036,"ECCENTRICITY":0.0009186,"INCLINATION":98.3844,"RA_OF_ASC_NODE":322.5078,"ARG_OF_PERICENTER":139.3818,"MEAN_ANOMALY":220.8083,"EPHEMERIS_TYPE":0,"CLASSIFICATION_TYPE":"U","NORAD_CAT_ID":89184,"ELEMENT_SET_NO":999,"REV_AT_EPOCH":50784,"BSTAR":0.0031831,"MEAN_MOTION_DOT":0.00028802,"MEAN_MOTION_DDOT":0},{"OBJECT_NAME":"UNKNOWN","OBJECT_ID":"","EPOCH":"2026-03-27T10:53:08.109312","MEAN_MOTION":13.91720436,"ECCENTRICITY":0.0226889,"INCLINATION":98.7687,"RA_OF_ASC_NODE":319.0652,"ARG_OF_PERICENTER":198.7883,"MEAN_ANOMALY":160.4803,"EPHEMERIS_TYPE":0,"CLASSIFICATION_TYPE":"U","NORAD_CAT_ID":89213,"ELEMENT_SET_NO":999,"REV_AT_EPOCH":46723,"BSTAR":0.0001996,"MEAN_MOTION_DOT":2.72e-6,"MEAN_MOTION_DDOT":0},{"OBJECT_NAME":"UNKNOWN","OBJECT_ID":"","EPOCH":"2026-03-28T12:33:15.395904","MEAN_MOTION":9.27799219,"ECCENTRICITY":0.2818312,"INCLINATION":62.4777,"RA_OF_ASC_NODE":224.7759,"ARG_OF_PERICENTER":110.5973,"MEAN_ANOMALY":281.742,"EPHEMERIS_TYPE":0,"CLASSIFICATION_TYPE":"U","NORAD_CAT_ID":89251,"ELEMENT_SET_NO":999,"REV_AT_EPOCH":38298,"BSTAR":0.0096744,"MEAN_MOTION_DOT":0.00016709,"MEAN_MOTION_DDOT":0},{"OBJECT_NAME":"UNKNOWN","OBJECT_ID":"","EPOCH":"2026-03-27T17:14:37.294944","MEAN_MOTION":14.43361329,"ECCENTRICITY":0.0012353,"INCLINATION":98.1639,"RA_OF_ASC_NODE":81.7019,"ARG_OF_PERICENTER":194.2222,"MEAN_ANOMALY":165.8623,"EPHEMERIS_TYPE":0,"CLASSIFICATION_TYPE":"U","NORAD_CAT_ID":89261,"ELEMENT_SET_NO":999,"REV_AT_EPOCH":54895,"BSTAR":0.00024349,"MEAN_MOTION_DOT":7.81e-6,"MEAN_MOTION_DDOT":0},{"OBJECT_NAME":"UNKNOWN","OBJECT_ID":"","EPOCH":"2026-03-23T17:20:32.987328","MEAN_MOTION":9.12234567,"ECCENTRICITY":0.2872239,"INCLINATION":84.26,"RA_OF_ASC_NODE":76.5878,"ARG_OF_PERICENTER":214.7883,"MEAN_ANOMALY":337.8826,"EPHEMERIS_TYPE":0,"CLASSIFICATION_TYPE":"U","NORAD_CAT_ID":89304,"ELEMENT_SET_NO":999,"REV_AT_EPOCH":44756,"BSTAR":0.016633,"MEAN_MOTION_DOT":0.0002261,"MEAN_MOTION_DDOT":0},{"OBJECT_NAME":"UNKNOWN","OBJECT_ID":"","EPOCH":"2026-03-28T01:06:51.242688","MEAN_MOTION":12.96295197,"ECCENTRICITY":0.0031405,"INCLINATION":90.2524,"RA_OF_ASC_NODE":9.7259,"ARG_OF_PERICENTER":353.3677,"MEAN_ANOMALY":6.7023,"EPHEMERIS_TYPE":0,"CLASSIFICATION_TYPE":"U","NORAD_CAT_ID":89349,"ELEMENT_SET_NO":999,"REV_AT_EPOCH":49239,"BSTAR":-0.00027095,"MEAN_MOTION_DOT":-7.0e-7,"MEAN_MOTION_DDOT":0},{"OBJECT_NAME":"UNKNOWN","OBJECT_ID":"","EPOCH":"2026-03-28T13:07:08.041440","MEAN_MOTION":13.63638557,"ECCENTRICITY":0.0046011,"INCLINATION":100.4783,"RA_OF_ASC_NODE":115.7526,"ARG_OF_PERICENTER":218.0239,"MEAN_ANOMALY":141.7649,"EPHEMERIS_TYPE":0,"CLASSIFICATION_TYPE":"U","NORAD_CAT_ID":89379,"ELEMENT_SET_NO":999,"REV_AT_EPOCH":59519,"BSTAR":0.0046338,"MEAN_MOTION_DOT":3.644e-5,"MEAN_MOTION_DDOT":0}]
